BEIDOU-3 G4 (C62)       
1 56564U 23066A   26117.47188631 -.00000291  00000+0  00000+0 0  9999
2 56564   0.5561 320.1476 0002857 159.8914  45.3872  1.00272248 10889
NVS-01 (IRNSS-1J)       
1 56759U 23076A   26117.47492605 -.00000347  00000+0  00000+0 0  9997
2 56759   2.2854 246.5344 0005374  50.3148 219.0984  1.00268169 10606
COSMOS 2569 (703K)      
1 57517U 23114A   26117.10429045 -.00000004  00000+0  00000+0 0  9991
2 57517  65.2749  74.3420 0012393 295.4044  64.4431  2.13103778 21171
BEIDOU-3 M28 (C50)      
1 58654U 23207A   26116.75122104 -.00000044  00000+0  00000+0 0  9997
2 58654  55.7097  64.0374 0004600 323.2817  36.6572  1.86229709 15888
BEIDOU-3 M26 (C48)      
1 58655U 23207B   26117.08567175 -.00000048  00000+0  00000+0 0  9990
2 58655  55.7120  64.0127 0004960 305.1993  54.7237  1.86229693 15875
GSAT0225 (GALILEO 29)   
1 59598U 24079A   26116.51256791  .00000043  00000+0  00000+0 0  9995
2 59598  55.0873 102.5222 0002644 283.7060 268.0228  1.70474393 12438
GSAT0227 (GALILEO 30)   
1 59600U 24079C   26116.97013875  .00000041  00000+0  00000+0 0  9991
2 59600  55.0827 102.5083 0001264  14.0321 345.9647  1.70474385 12495
GSAT0232 (GALILEO 32)   
1 61182U 24167A   26115.45016990 -.00000037  00000+0  00000+0 0  9996
2 61182  55.2008 222.7596 0004844 214.4336 148.2272  1.70474394  9987
GSAT0226 (GALILEO 31)   
1 61183U 24167B   26117.06262813 -.00000038  00000+0  00000+0 0  9994
2 61183  55.1989 222.7226 0001799 195.0012 168.6094  1.70474449  9985
BEIDOU-3 M25 (C47)      
1 61186U 24168B   26117.44093380 -.00000066  00000+0  00000+0 0  9992
2 61186  54.5193 304.0043 0003273 319.1670  36.1200  1.86230124 10838
BEIDOU-3 M27 (C49)      
1 61187U 24168C   26116.97760779 -.00000062  00000+0  00000+0 0  9999
2 61187  54.5152 304.0035 0002608  40.2618 139.4025  1.86230201  8307
GPS BIII-7  (PRN 01)    
1 62339U 24242A   26116.23725212 -.00000085  00000+0  00000+0 0  9999
2 62339  54.8705 336.2872 0016832   0.5482 176.6523  2.00570556 10218
NVS-02 (IRNSS-1K)       
1 62850U 25020A   26116.56641438  .00001566  00000+0  12860-2 0  9999
2 62850  20.7920 278.1255 7348841 115.0158 334.4623  2.17876983  9857
QZS-6 (QZSS/PRN 200)    
1 62876U 25023A   26117.34767167  .00000000  00000+0  00000+0 0  9997
2 62876   0.0139  71.2493 0002727 335.1976  24.5374  1.00271463  4443
COSMOS 2584 (704K)      
1 63130U 25042A   26116.99118921 -.00000002  00000+0  00000+0 0  9993
2 63130  65.0570  74.5414 0006740 237.4306 122.4806  2.13103661  8953
GPS BIII-8  (PRN 21)    
1 64202U 25116A   26113.24280751 -.00000081  00000+0  00000+0 0  9999
2 64202  55.1985  33.3417 0009124 335.2523  22.0569  2.00549673  6768
COSMOS 2596 (708K)      
1 65590U 25206B   26116.13860336 -.00000029  00000+0  00000+0 0  9996
2 65590  64.6645 316.7970 0011576 316.9570 225.8124  2.13100475  4801
